GSAT0206 (GALILEO 10)   
1 40890U 15045B   26061.11237909  .00000012  00000+0  00000+0 0  9994
2 40890  54.9813 224.5577 0003844  49.8147 310.1636  1.70473619 65219
GPS BIIF-11 (PRN 10)    
1 41019U 15062A   26061.58186006 -.00000071  00000+0  00000+0 0  9995
2 41019  56.8916  34.9181 0111458 231.4820 127.5052  2.00567039 75699
GSAT0208 (GALILEO 11)   
1 41175U 15079B   26060.32760050  .00000013  00000+0  00000+0 0  9999
2 41175  55.7558 104.2170 0004043 323.8191  36.2374  1.70474277 63359
IRNSS-1E                
1 41241U 16003A   26061.78775641 -.00000295  00000+0  00000+0 0  9997
2 41241  33.0034  61.2821 0017845 189.1467 305.5224  1.00275459 37013
GPS BIIF-12 (PRN 32)    
1 41328U 16007A   26061.66715688  .00000020  00000+0  00000+0 0  9994
2 41328  55.4544  93.6817 0095391 245.9540 113.1161  2.00556830 73707
COSMOS 2514 (751)       
1 41330U 16008A   26061.29392883 -.00000045  00000+0  00000+0 0  9993
2 41330  65.0839 316.6776 0009165 209.7973 150.2088  2.13102552 78345
GSAT0211 (GALILEO 14)   
1 41549U 16030A   26061.62472215  .00000011  00000+0  00000+0 0  9997
2 41549  55.1322 224.6224 0003632  25.7212 334.2388  1.70473766 60859
GSAT0210 (GALILEO 13)   
1 41550U 16030B   26061.29541970  .00000012  00000+0  00000+0 0  9998
2 41550  55.1304 224.6297 0001173 192.8511 167.0898  1.70473885 60846
EUTELSAT 117 WEST B (W*)
1 41589U 16038B   26061.70758115 -.00000028  00000+0  00000+0 0  9993
2 41589   0.0344  10.3703 0000068 169.5452 118.2901  1.00271396 35593
GSAT0207 (GALILEO 15)   
1 41859U 16069A   26059.22748061  .00000008  00000+0  00000+0 0  9997
2 41859  55.4267 104.1007 0005031 309.1503  50.8842  1.70474383 57546
GSAT0212 (GALILEO 16)   
1 41860U 16069B   26058.49445287  .00000005  00000+0  00000+0 0  9998
2 41860  55.4238 104.1162 0003541 336.3420  23.7177  1.70474549 57782
